              M50 Cartesian                         J2K Cartesian  
    -----------------------------------       --------------------------------
     X    =      -11777077.57                 X    =        -3649914.97
     Y    =       11158663.05  feet           Y    =         3360682.07  meter
     Z    =       15193834.36                 Z    =         4613496.34
     XDOT =      -7889.708463                 XDOT =       -2344.978681
     YDOT =     -21776.979838  feet/sec       YDOT =       -6664.180690  meter/sec
     ZDOT =       9859.442740                 ZDOT =        2993.622099
 
              TDR Cartesian                         TDR Cartesian  
    -----------------------------------       --------------------------------
     X    =       -8013644.36                 X    =        -2442558.80
     Y    =       14189140.14  feet           Y    =         4324849.91  meter
     Z    =       15116802.76                 Z    =         4607601.48
     XDOT =     -13040.574830                 XDOT =       -3974.767208
     YDOT =     -17836.671661  feet/sec       YDOT =       -5436.617522  meter/sec
     ZDOT =       9810.472178                 ZDOT =        2990.231920
  
  
    The mean element set is posted at the UTC for which position is
    just north of the next ascending node relative to the above
    vector time
 
 
    TWO LINE MEAN ELEMENT SET
  
    ISS
    1 25544U 98067A   16090.58087979  .00016717  00000-0  10270-3 0  9141
    2 25544  51.6393  90.0720 0002363  10.5749 349.5453 15.54460629 32759
  
  
    Satellite: ISS
    Catalog Number: 25544
    Epoch time:      16090.58087979   =   yrday.fracday
    Element set:     914
    Inclination:       51.6393  deg
    RA of node:        90.0720  deg
    Eccentricity:     .0002363     
    Arg of perigee:    10.5749  deg
    Mean anomaly:     349.5453  deg
    Mean motion:   15.54460629  rev/day
    Decay rate:    1.67170E-04  rev/day^2
    Epoch rev:            3275
    Checksum:              324
 
             </PRE>
           </TD>
        </TR>
    </TABLE>
    
    <table align="center" border="0" width="600" cellpadding="0" cellspacing="0">
      <tr>
        <td align="center" valign="top"><hr size="1" width="600" noshade="noshade" />
        <font face="Arial,helvetica" size="-2">Curator: <a href="/cgi-bin/comment.cgi?jsc-hsfwebma@mail.nasa.gov">Kim 
          Dismukes</a> | Responsible NASA Official: <a href="/cgi-bin/comment.cgi?jsc-hsfwebma@mail.nasa.gov">Amiko Kauderer</a> | Updated: 06/08/2009<br />
        <a href="http://www.nasa.gov/about/highlights/HP_Privacy.html">Privacy Policy and Important Notices</a></font></td>
      </tr>
    </table>
    </body>
    </html>
